NORAD_CAT_ID,OBJECT_NAME,OBJECT_TYPE,EPOCH,MEAN_MOTION,ECCENTRICITY,INCLINATION,RA_OF_ASC_NODE,ARG_OF_PERICENTER,MEAN_ANOMALY,BSTAR,MEAN_MOTION_DOT,MEAN_MOTION_DDOT,TLE_LINE0,TLE_LINE1,TLE_LINE2,SEMIMAJOR_AXIS,PERIOD,APOGEE,PERIGEE,DECAYED
56481.0,STARLINK-6222,PAYLOAD,2024-02-27 14:22:44,14.98325271,0.0002716,70.0007,192.906,265.4722,94.6127,-5.0872e-05,-7e-06,0.0,0 STARLINK-6222,1 56481U 23064AK  24058.59912609 -.00000700  00000-0 -50872-4 0  9994,2 56481  70.0007 192.9060 0002716 265.4722  94.6127 14.98325271 44730,6950.208,96.107,573.96,570.185,0.0
56481.0,STARLINK-6222,PAYLOAD,2024-02-27 19:11:08,14.98326816,0.0002798,70.0007,192.4015,267.2529,92.8309,-4.846e-05,-6.71e-06,0.0,0 STARLINK-6222,1 56481U 23064AK  24058.79940546 -.00000671  00000-0 -48460-4 0  9994,2 56481  70.0007 192.4015 0002798 267.2529  92.8309 14.98326816 45122,6950.203,96.107,574.012,570.123,0.0
56481.0,STARLINK-6222,PAYLOAD,2024-02-28 12:48:37,14.98327224,0.0002931,70.0007,190.5502,271.2951,88.7872,-4.0639e-06,-1.41e-06,0.0,0 STARLINK-6222,1 56481U 23064AK  24059.53376483 -.00000141  00000-0 -40639-5 0  9993,2 56481  70.0007 190.5502 0002931 271.2951  88.7872 14.98327224 45230,6950.201,96.107,574.104,570.029,0.0
56481.0,STARLINK-6222,PAYLOAD,2024-02-28 14:24:45,14.98327359,0.0002928,70.0007,190.3819,271.3521,88.7303,-2.4921e-06,-1.23e-06,0.0,0 STARLINK-6222,1 56481U 23064AK  24059.60052483 -.00000123  00000-0 -24921-5 0  9998,2 56481  70.0007 190.3819 0002928 271.3521  88.7303 14.98327359 44887,6950.201,96.107,574.101,570.031,0.0
56481.0,STARLINK-6222,PAYLOAD,2024-02-28 19:13:09,14.98343429,0.0002527,70.0008,189.8773,262.4728,97.6144,-0.00023673,-2.917e-05,0.0,0 STARLINK-6222,1 56481U 23064AK  24059.80079998 -.00002917  00000-0 -23673-3 0  9994,2 56481  70.0008 189.8773 0002527 262.4728  97.6144 14.98343429 45277,6950.151,96.106,573.773,570.26,0.0
56481.0,STARLINK-6222,PAYLOAD,2024-02-29 11:14:29,14.98329416,0.0003135,70.0002,188.1933,271.7588,88.3212,6.5872e-05,6.93e-06,0.0,0 STARLINK-6222,1 56481U 23064AK  24060.46840126  .00000693  00000-0  65872-4 0  9992,2 56481  70.0002 188.1933 0003135 271.7588  88.3212 14.98329416 45378,6950.195,96.107,574.239,569.881,0.0
56481.0,STARLINK-6222,PAYLOAD,2024-02-29 14:26:45,14.98330469,0.0002965,70.0005,187.8568,268.1408,91.9411,8.5406e-05,9.26e-06,0.0,0 STARLINK-6222,1 56481U 23064AK  24060.60191978  .00000926  00000-0  85406-4 0  9996,2 56481  70.0005 187.8568 0002965 268.1408  91.9411 14.98330469 45036,6950.191,96.107,574.117,569.996,0.0
56481.0,STARLINK-6222,PAYLOAD,2024-02-29 17:39:01,14.98331141,0.0002861,70.0008,187.5205,266.7019,93.3812,9.628e-05,1.056e-05,0.0,0 STARLINK-6222,1 56481U 23064AK  24060.73543899  .00001056  00000-0  96280-4 0  9990,2 56481  70.0008 187.5205 0002861 266.7019  93.3812 14.98331141 45412,6950.189,96.107,574.043,570.066,0.0
56481.0,STARLINK-6222,PAYLOAD,2024-03-01 01:39:42,14.98339584,0.0002972,70.0009,186.679,271.2435,88.8383,-8.8142e-05,-1.145e-05,0.0,0 STARLINK-6222,1 56481U 23064AK  24061.06923800 -.00001145  00000-0 -88142-4 0  9990,2 56481  70.0009 186.6790 0002972 271.2435  88.8383 14.98339584 45464,6950.163,96.106,574.094,569.963,0.0
56481.0,STARLINK-6222,PAYLOAD,2024-03-01 11:16:30,14.98329097,0.0002846,70.0012,185.6697,268.4924,91.5909,2.9326e-06,-5.8e-07,0.0,0 STARLINK-6222,1 56481U 23064AK  24061.46980219 -.00000058  00000-0  29326-5 0  9992,2 56481  70.0012 185.6697 0002846 268.4924  91.5909 14.98329097 45524,6950.196,96.107,574.039,570.083,0.0
56481.0,STARLINK-6222,PAYLOAD,2024-03-01 14:28:46,14.98330765,0.0002814,70.0013,185.3329,266.6133,93.4704,2.2638e-05,1.77e-06,0.0,0 STARLINK-6222,1 56481U 23064AK  24061.60332035  .00000177  00000-0  22638-4 0  9994,2 56481  70.0013 185.3329 0002814 266.6133  93.4704 14.98330765 45181,6950.191,96.107,574.011,570.1,0.0
56481.0,STARLINK-6222,PAYLOAD,2024-03-01 16:04:55,14.98328858,0.0002862,70.0012,185.1647,266.9845,93.0986,6.3825e-06,-1.7e-07,0.0,0 STARLINK-6222,1 56481U 23064AK  24061.67008200 -.00000017  00000-0  63825-5 0  9993,2 56481  70.0012 185.1647 0002862 266.9845  93.0986 14.98328858 45556,6950.196,96.107,574.051,570.072,0.0
56481.0,STARLINK-6222,PAYLOAD,2024-03-02 11:18:31,14.98333751,0.0002988,70.0012,183.1449,269.4751,90.6066,-1.2594e-05,-2.43e-06,0.0,0 STARLINK-6222,1 56481U 23064AK  24062.47119809 -.00000243  00000-0 -12594-4 0  9998,2 56481  70.0012 183.1449 0002988 269.4751  90.6066 14.98333751 45670,6950.181,96.107,574.123,569.97,0.0
56481.0,STARLINK-6222,PAYLOAD,2024-03-02 14:30:47,14.98334559,0.0003076,70.0008,182.8085,270.3102,89.7705,-1.2941e-05,-2.47e-06,0.0,0 STARLINK-6222,1 56481U 23064AK  24062.60471717 -.00000247  00000-0 -12941-4 0  9992,2 56481  70.0008 182.8085 0003076 270.3102  89.7705 14.98334559 45336,6950.179,96.107,574.182,569.906,0.0
56481.0,STARLINK-6222,PAYLOAD,2024-03-02 17:43:03,14.98335492,0.0003139,70.001,182.4724,272.5271,87.5529,2.2915e-05,1.8e-06,0.0,0 STARLINK-6222,1 56481U 23064AK  24062.73823519  .00000180  00000-0  22915-4 0  9993,2 56481  70.0010 182.4724 0003139 272.5271  87.5529 14.98335492 45715,6950.176,96.107,574.223,569.859,0.0
56481.0,STARLINK-6222,PAYLOAD,2024-03-03 01:43:44,14.98330729,0.0002671,70.0019,181.6298,275.6278,84.4576,-2.9522e-05,-4.45e-06,0.0,0 STARLINK-6222,1 56481U 23064AK  24063.07204017 -.00000445  00000-0 -29522-4 0  9994,2 56481  70.0019 181.6298 0002671 275.6278  84.4576 14.98330729 45763,6950.191,96.107,573.912,570.199,0.0
56481.0,STARLINK-6222,PAYLOAD,2024-03-03 11:20:32,14.98325626,0.0002939,70.001,180.6189,270.5133,89.5689,-8.035e-06,-1.89e-06,0.0,0 STARLINK-6222,1 56481U 23064AK  24063.47260164 -.00000189  00000-0 -80350-5 0  9995,2 56481  70.0010 180.6189 0002939 270.5133  89.5689 14.98325626 45821,6950.206,96.107,574.114,570.029,0.0
56481.0,STARLINK-6222,PAYLOAD,2024-03-03 17:45:04,14.98331122,0.0002971,70.0013,179.9462,269.1202,90.9617,1.916e-05,1.36e-06,0.0,0 STARLINK-6222,1 56481U 23064AK  24063.73963755  .00000136  00000-0  19160-4 0  9990,2 56481  70.0013 179.9462 0002971 269.1202  90.9617 14.98331122 45506,6950.189,96.107,574.119,569.99,0.0
56481.0,STARLINK-6222,PAYLOAD,2024-03-04 11:22:32,14.98344243,0.0002994,70.0008,178.0943,269.1384,90.9432,8.5631e-05,9.29e-06,0.0,0 STARLINK-6222,1 56481U 23064AK  24064.47398344  .00000929  00000-0  85631-4 0  9994,2 56481  70.0008 178.0943 0002994 269.1384  90.9432 14.98344243 45974,6950.149,96.106,574.095,569.933,0.0
56481.0,STARLINK-6222,PAYLOAD,2024-03-04 14:34:48,14.98345084,0.0002986,70.0008,177.7577,269.1915,90.8902,9.3639e-05,1.025e-05,0.0,0 STARLINK-6222,1 56481U 23064AK  24064.60750148  .00001025  00000-0  93639-4 0  9998,2 56481  70.0008 177.7577 0002986 269.1915  90.8902 14.98345084 45632,6950.146,96.106,574.087,569.936,0.0
56481.0,STARLINK-6222,PAYLOAD,2024-03-04 17:47:03,14.98349615,0.0002853,70.0012,177.4213,269.0695,91.0137,0.00013081,1.469e-05,0.0,0 STARLINK-6222,1 56481U 23064AK  24064.74101624  .00001469  00000-0  13081-3 0  9996,2 56481  70.0012 177.4213 0002853 269.0695  91.0137 14.98349615 46018,6950.132,96.106,573.98,570.014,0.0
56481.0,STARLINK-6222,PAYLOAD,2024-03-05 14:36:51,14.98311958,0.0002847,70.0007,175.2341,262.3657,97.7179,-0.00019614,-2.431e-05,0.0,0 STARLINK-6222,1 56481U 23064AK  24065.60893179 -.00002431  00000-0 -19614-3 0  9995,2 56481  70.0007 175.2341 0002847 262.3657  97.7179 14.98311958 45788,6950.249,96.108,574.092,570.135,0.0
56481.0,STARLINK-6222,PAYLOAD,2024-03-05 17:49:07,14.9831288,0.0002964,70.0006,174.8972,264.9021,95.1799,-0.0001798,-2.237e-05,0.0,0 STARLINK-6222,1 56481U 23064AK  24065.74245207 -.00002237  00000-0 -17980-3 0  9991,2 56481  70.0006 174.8972 0002964 264.9021  95.1799 14.98312880 46163,6950.246,96.108,574.171,570.051,0.0
56481.0,STARLINK-6222,PAYLOAD,2024-03-06 11:26:35,14.98329778,0.0003343,69.9998,173.0439,277.4486,82.6293,-0.00016296,-2.037e-05,0.0,0 STARLINK-6222,1 56481U 23064AK  24066.47680367 -.00002037  00000-0 -16296-3 0  9999,2 56481  69.9998 173.0439 0003343 277.4486  82.6293 14.98329778 46271,6950.194,96.107,574.382,569.735,0.0
56481.0,STARLINK-6222,PAYLOAD,2024-03-06 13:02:43,14.98331502,0.0003197,70.0002,172.8762,279.6994,80.3803,-0.00014342,-1.804e-05,0.0,0 STARLINK-6222,1 56481U 23064AK  24066.54356264 -.00001804  00000-0 -14342-3 0  9994,2 56481  70.0002 172.8762 0003197 279.6994  80.3803 14.98331502 45922,6950.188,96.107,574.275,569.831,0.0
56481.0,STARLINK-6222,PAYLOAD,2024-03-06 16:14:59,14.98339406,0.0003144,69.9999,172.5396,271.1183,88.9616,-4.1172e-05,-5.84e-06,0.0,0 STARLINK-6222,1 56481U 23064AK  24066.67707356 -.00000584  00000-0 -41172-4 0  9996,2 56481  69.9999 172.5396 0003144 271.1183  88.9616 14.98339406 46303,6950.164,96.106,574.214,569.844,0.0
56481.0,STARLINK-6222,PAYLOAD,2024-03-07 00:15:39,14.98343695,0.0002991,70.0001,171.6969,279.0988,80.9833,-0.00013729,-1.731e-05,0.0,0 STARLINK-6222,1 56481U 23064AK  24067.01087213 -.00001731  00000-0 -13729-3 0  9999,2 56481  70.0001 171.6969 0002991 279.0988  80.9833 14.98343695 46358,6950.151,96.106,574.094,569.937,0.0
56481.0,STARLINK-6222,PAYLOAD,2024-03-07 14:40:52,14.98322287,0.0002566,70.0007,170.1837,260.4038,99.6831,0.00024658,2.85e-05,0.0,0 STARLINK-6222,1 56481U 23064AK  24067.61171803  .00002850  00000-0  24658-3 0  9998,2 56481  70.0007 170.1837 0002566 260.4038  99.6831 14.98322287 46089,6950.217,96.107,573.865,570.298,0.0
56481.0,STARLINK-6222,PAYLOAD,2024-03-08 11:30:37,14.98332648,0.0002656,70.0009,167.9963,260.9316,99.1542,-1.9994e-05,-3.32e-06,0.0,0 STARLINK-6222,1 56481U 23064AK  24068.47959949 -.00000332  00000-0 -19994-4 0  9991,2 56481  70.0009 167.9963 0002656 260.9316  99.1542 14.98332648 46579,6950.185,96.107,573.896,570.204,0.0
56481.0,STARLINK-6222,PAYLOAD,2024-03-09 00:19:41,14.98335025,0.0002865,70.0005,166.6483,270.758,89.3251,-2.1431e-05,-3.49e-06,0.0,0 STARLINK-6222,1 56481U 23064AK  24069.01367685 -.00000349  00000-0 -21431-4 0  9999,2 56481  70.0005 166.6483 0002865 270.7580  89.3251 14.98335025 46651,6950.177,96.107,574.034,570.051,0.0
